[
    {
        "CCSDS_OMM_VERS": "3.0",
        "COMMENT": "GENERATED VIA SPACE-TRACK.ORG API",
        "CREATION_DATE": "2025-03-02T18:08:23",
        "ORIGINATOR": "18 SPCS",
        "OBJECT_NAME": "NAVSTAR 71 (USA 256)",
        "OBJECT_ID": "2014-045A",
        "CENTER_NAME": "EARTH",
        "REF_FRAME": "TEME",
        "TIME_SYSTEM": "UTC",
        "MEAN_ELEMENT_THEORY": "SGP4",
        "EPOCH": "2025-03-02T09:27:23.131872",
        "MEAN_MOTION": "2.00553762",
        "ECCENTRICITY": "0.00283450",
        "INCLINATION": "55.0567",
        "RA_OF_ASC_NODE": "107.2884",
        "ARG_OF_PERICENTER": "118.4937",
        "MEAN_ANOMALY": "241.8730",
        "EPHEMERIS_TYPE": "0",
        "CLASSIFICATION_TYPE": "U",
        "NORAD_CAT_ID": "40105",
        "ELEMENT_SET_NO": "999",
        "REV_AT_EPOCH": "7661",
        "BSTAR": "0.00000000000000",
        "MEAN_MOTION_DOT": "0.00000025",
        "MEAN_MOTION_DDOT": "0.0000000000000",
        "SEMIMAJOR_AXIS": "26561.217",
        "PERIOD": "718.012",
        "APOAPSIS": "20258.370",
        "PERIAPSIS": "20107.794",
        "OBJECT_TYPE": "PAYLOAD",
        "RCS_SIZE": "LARGE",
        "COUNTRY_CODE": "US",
        "LAUNCH_DATE": "2014-08-02",
        "SITE": "AFETR",
        "DECAY_DATE": null,
        "FILE": "4657142",
        "GP_ID": "282085071",
        "TLE_LINE0": "0 NAVSTAR 71 (USA 256)",
        "TLE_LINE1": "1 40105U 14045A   25061.39401773  .00000025  00000-0  00000-0 0  9999",
        "TLE_LINE2": "2 40105  55.0567 107.2884 0028345 118.4937 241.8730  2.00553762 76610"
    }
]